[{"OBJECT_NAME":"HYPERFIELD-1A","OBJECT_ID":"2024-149CY","EPOCH":"2026-03-09T18:21:25.814304","MEAN_MOTION":15.29681349,"ECCENTRICITY":0.00038648,"INCLINATION":97.3842,"RA_OF_ASC_NODE":149.5066,"ARG_OF_PERICENTER":313.7844,"MEAN_ANOMALY":46.3076,"EPHEMERIS_TYPE":0,"CLASSIFICATION_TYPE":"U","NORAD_CAT_ID":60562,"ELEMENT_SET_NO":999,"REV_AT_EPOCH":8683,"BSTAR":0.00030052114,"MEAN_MOTION_DOT":8.569e-5,"MEAN_MOTION_DDOT":0},{"OBJECT_NAME":"STARLINK-32708","OBJECT_ID":"2025-003J","EPOCH":"2026-03-08T23:53:21.486048","MEAN_MOTION":15.27608468,"ECCENTRICITY":0.00036607,"INCLINATION":43.0005,"RA_OF_ASC_NODE":293.041,"ARG_OF_PERICENTER":246.3573,"MEAN_ANOMALY":113.6894,"EPHEMERIS_TYPE":0,"CLASSIFICATION_TYPE":"U","NORAD_CAT_ID":62495,"ELEMENT_SET_NO":999,"REV_AT_EPOCH":6644,"BSTAR":0.0016206507,"MEAN_MOTION_DOT":0.0004465,"MEAN_MOTION_DDOT":0}]
