HYPERFIELD-1A           
1 60562U 24149CY  26068.76488211  .00008569  00000+0  30052-3 0  9998
2 60562  97.3842 149.5066 0003865 313.7844  46.3076 15.29681349 86836
STARLINK-32708          
1 62495U 25003J   26067.99538757  .00044650  00000+0  16207-2 0  9996
2 62495  43.0005 293.0410 0003660 246.3573 113.6894 15.27608468 66443
